     2.100          NAVIGATION                              RINEX VERSION / TYPE
fic2rin                                 06/07/2016 00:44:15 PGM / RUN BY / DATE
                                                            END OF HEADER
 9 16  6  6 13 59 44.0  .143442768604D-03  .727595761418D-11  .000000000000D+00
     .180000000000D+02 -.153437500000D+02  .472876840076D-08 -.111186341401D+01
    -.103004276752D-05  .566195813008D-03  .102669000626D-04  .515356754303D+04
     .136784000000D+06 -.149011611938D-07 -.327957773763D+00 -.167638063431D-07
     .955270121715D+00  .183031250000D+03  .231603713583D+01 -.800033324599D-08
    -.526093342471D-09  .100000000000D+01  .190000000000D+04  .000000000000D+00
     .240000000000D+01  .000000000000D+00  .139698386192D-08  .180000000000D+02
     .129606000000D+06  .400000000000D+01
15 16  6  6 13 59 44.0 -.314128585160D-03 -.159161572810D-11  .000000000000D+00
     .240000000000D+02 -.640625000000D+01  .528272004649D-08 -.155661653396D+01
    -.592321157455D-06  .813616323285D-02  .926479697227D-05  .515360032654D+04
     .136784000000D+06  .121071934700D-06 -.380726918553D+00 -.540167093277D-07
     .930945133899D+00  .179562500000D+03  .484179874001D+00 -.820927052050D-08
    -.449304429619D-09  .100000000000D+01  .190000000000D+04  .000000000000D+00
     .240000000000D+01  .000000000000D+00 -.107102096081D-07  .240000000000D+02
     .129606000000D+06  .400000000000D+01
28 16  6  6 13 59 44.0  .528236385435D-03  .261479726760D-11  .000000000000D+00
     .270000000000D+02  .143750000000D+01  .431696553323D-08  .425451482676D-01
     .229105353355D-06  .197510229191D-01  .106357038021D-05  .515362831688D+04
     .136784000000D+06 -.208616256714D-06  .185023871631D+01  .167638063431D-07
     .989257329419D+00  .375562500000D+03 -.161616916258D+01 -.866857536667D-08
    -.117862052285D-09  .100000000000D+01  .190000000000D+04  .000000000000D+00
     .240000000000D+01  .000000000000D+00 -.111758708954D-07  .270000000000D+02
     .129606000000D+06  .400000000000D+01
 1 16  6  6 14  0  0.0  .227624550462D-04  .125055521494D-11  .000000000000D+00
     .740000000000D+02 -.213437500000D+02  .404445418204D-08 -.284536425049D+01
    -.105611979961D-05  .554141518660D-02  .115111470222D-04  .515364727402D+04
     .136800000000D+06  .353902578354D-07 -.240907757875D+01 -.372529029846D-08
     .964541907785D+00  .160906250000D+03  .466568173363D+00 -.759067332487D-08
     .638598028743D-09  .100000000000D+01  .190000000000D+04  .000000000000D+00
     .240000000000D+01  .000000000000D+00  .512227416039D-08  .740000000000D+02
     .129606000000D+06  .400000000000D+01
 2 16  6  6 14  0  0.0  .587217975408D-03 -.250111042988D-11  .000000000000D+00
     .330000000000D+02 -.134687500000D+02  .443054169270D-08 -.248926142798D+01
    -.707805156708D-06  .157487196848D-01  .117085874081D-04  .515357661057D+04
     .136800000000D+06  .372529029846D-07 -.245481396284D+01 -.141561031342D-06
     .943352948197D+00  .142125000000D+03 -.211144615821D+01 -.759745932182D-08
     .690028742467D-09  .100000000000D+01  .190000000000D+04  .000000000000D+00
     .240000000000D+01  .000000000000D+00 -.200234353542D-07  .330000000000D+02
     .129606000000D+06  .400000000000D+01
 3 16  6  6 14  0  0.0 -.648270361125D-04 -.352429196937D-11  .000000000000D+00
     .850000000000D+02  .132500000000D+02  .495984945478D-08 -.173177520611D+01
     .782310962677D-06  .238899840042D-03  .467523932457D-05  .515367885971D+04
     .136800000000D+06 -.335276126862D-07 -.136738443627D+01  .000000000000D+00
     .958792197932D+00  .284468750000D+03 -.178218702080D+01 -.825391523727D-08
     .289654922433D-09  .100000000000D+01  .190000000000D+04  .000000000000D+00
     .240000000000D+01  .000000000000D+00  .186264514923D-08  .850000000000D+02
     .129606000000D+06  .400000000000D+01
 4 16  6  6 14  0  0.0 -.257391948253D-03 -.568434188608D-12  .000000000000D+00
     .770000000000D+02  .222500000000D+02  .579952728788D-08  .335011404444D+00
     .135041773319D-05  .850455637556D-02  .180676579475D-06  .515364577866D+04
     .136800000000D+06 -.577419996262D-07  .179713027255D+01  .633299350739D-07
     .983022271623D+00  .384031250000D+03  .893278135706D+00 -.858035740633D-08
    -.835749098019D-10  .100000000000D+01  .190000000000D+04  .000000000000D+00
     .240000000000D+01  .630000000000D+02 -.195577740669D-07  .770000000000D+02
     .129606000000D+06  .400000000000D+01
 5 16  6  6 14  0  0.0 -.114954076707D-03  .295585778076D-11  .000000000000D+00
     .940000000000D+02  .556250000000D+01  .529950646000D-08  .209679155921D-01
     .454485416412D-06  .462045823224D-02  .460632145405D-05  .515379408646D+04
     .136800000000D+06  .540167093277D-07 -.137942186897D+01  .391155481339D-07
     .945859311614D+00  .282343750000D+03  .451374079439D+00 -.847428155927D-08
     .202865593023D-09  .100000000000D+01  .190000000000D+04  .000000000000D+00
     .240000000000D+01  .000000000000D+00 -.107102096081D-07  .940000000000D+02
     .129606000000D+06  .400000000000D+01
 7 16  6  6 14  0  0.0  .450129620731D-03 -.238742359215D-11  .000000000000D+00
     .390000000000D+02  .137562500000D+03  .425946313802D-08  .271338669513D+01
     .713579356670D-05  .953677447978D-02  .932440161705D-05  .515365473366D+04
     .136800000000D+06 -.130385160446D-06  .749716675657D+00 -.141561031342D-06
     .966478587495D+00  .204812500000D+03 -.267555455396D+01 -.777318092704D-08
     .198936857947D-09  .100000000000D+01  .190000000000D+04  .000000000000D+00
     .240000000000D+01  .000000000000D+00 -.111758708954D-07  .390000000000D+02
     .129606000000D+06  .400000000000D+01
 8 16  6  6 14  0  0.0 -.379891134799D-04 -.147792889038D-11  .000000000000D+00
     .650000000000D+02 -.145437500000D+03  .422981904608D-08  .123391338053D+00
    -.754557549953D-05  .173891661689D-02  .692345201969D-05  .515370418358D+04
     .136800000000D+06  .204890966415D-07  .281411611258D+01 -.134110450745D-06
     .963684732880D+00  .251437500000D+03 -.107921717992D+01 -.801461955536D-08
    -.411802867528D-09  .100000000000D+01  .190000000000D+04  .000000000000D+00
     .240000000000D+01  .000000000000D+00  .465661287308D-08  .650000000000D+02
     .129606000000D+06  .400000000000D+01
10 16  6  6 14  0  0.0 -.394955277443D-04 -.841282599140D-11  .000000000000D+00
     .800000000000D+02  .821875000000D+01  .499413659726D-08  .107953246364D+01
     .352039933205D-06  .154228752945D-02  .503100454807D-05  .515366986465D+04
     .136800000000D+06 -.521540641785D-07 -.137138559329D+01  .167638063431D-07
     .959030302479D+00  .281531250000D+03 -.270654495789D+01 -.818569811004D-08
     .207151485834D-09  .100000000000D+01  .190000000000D+04  .000000000000D+00
     .240000000000D+01  .000000000000D+00  .232830643654D-08  .800000000000D+02
     .129606000000D+06  .400000000000D+01
11 16  6  6 14  0  0.0 -.649642664939D-03 -.147792889038D-11  .000000000000D+00
     .650000000000D+02 -.863750000000D+02  .535343727787D-08  .283035077574D+01
    -.433437526226D-05  .164268686203D-01  .111833214760D-04  .515367064476D+04
     .136800000000D+06  .175088644028D-06 -.278666709246D+01 -.558793544769D-08
     .897097010206D+00  .127187500000D+03  .152786153176D+01 -.799640451092D-08
     .242510101519D-09  .100000000000D+01  .190000000000D+04  .000000000000D+00
     .340000000000D+01  .000000000000D+00 -.121071934700D-07  .650000000000D+02
     .129606000000D+06  .400000000000D+01
12 16  6  6 14  0  0.0  .381958205253D-03  .113686837722D-11  .000000000000D+00
     .930000000000D+02  .212500000000D+01  .422874757288D-08  .214430640843D+01
    -.124797224998D-06  .614082522225D-02  .171363353729D-06  .515371870995D+04
     .136800000000D+06 -.154599547386D-06  .182650508095D+01 -.135973095894D-06
     .990034860137D+00  .392125000000D+03  .758369312372D+00 -.823855745470D-08
    -.835749098019D-10  .100000000000D+01  .190000000000D+04  .000000000000D+00
     .340000000000D+01  .000000000000D+00 -.125728547573D-07  .930000000000D+02
     .129606000000D+06  .400000000000D+01
13 16  6  6 14  0  0.0 -.229105353355D-04 -.250111042988D-11  .000000000000D+00
     .950000000000D+02  .158437500000D+02  .419160316853D-08 -.264892727688D+01
     .823289155960D-06  .432485830970D-02  .110715627670D-04  .515368276978D+04
     .136800000000D+06  .391155481339D-07 -.207155676363D+00  .819563865662D-07
     .971741976565D+00  .169781250000D+03  .200523939553D+01 -.761174563119D-08
    -.488234622646D-09  .100000000000D+01  .190000000000D+04  .000000000000D+00
     .240000000000D+01  .000000000000D+00 -.111758708954D-07  .950000000000D+02
     .129606000000D+06  .400000000000D+01
14 16  6  6 14  0  0.0 -.178995542228D-04 -.204636307899D-11  .000000000000D+00
     .890000000000D+02  .484375000000D+01  .450768776329D-08 -.965227390235D+00
     .439584255219D-06  .871033268049D-02  .108405947685D-04  .515402053452D+04
     .136800000000D+06 -.316649675369D-07 -.244239201383D+00  .145286321640D-06
     .964206560148D+00  .174375000000D+03 -.196621329377D+01 -.789390024120D-08
    -.566452166435D-09  .100000000000D+01  .190000000000D+04  .000000000000D+00
     .240000000000D+01  .000000000000D+00 -.931322574615D-08  .890000000000D+02
     .129606000000D+06  .400000000000D+01
16 16  6  6 14  0  0.0 -.126161612570D-04  .250111042988D-11  .000000000000D+00
     .104000000000D+03  .113125000000D+02  .431732269096D-08  .110499454403D+00
     .581145286560D-06  .873658119235D-02  .175088644028D-06  .515376572037D+04
     .136800000000D+06  .558793544769D-08  .184529903005D+01  .856816768646D-07
     .990548536025D+00  .386750000000D+03  .389640790011D+00 -.843963725905D-08
    -.128933942045D-09  .100000000000D+01  .190000000000D+04  .000000000000D+00
     .340000000000D+01  .000000000000D+00 -.107102096081D-07  .104000000000D+03
     .129606000000D+06  .400000000000D+01
